IRIDIUM 171             
1 43929U 19002H   25263.92461795 -.00000069  00000+0 -31769-4 0  9996
2 43929  86.3930 106.4369 0002132  79.6721 280.4715 14.34216744350367
IRIDIUM 170             
1 43930U 19002J   25263.94508606  .00000317  00000+0  46321-4 0  9997
2 43930  86.6047 106.1620 0002369  85.7980 274.3508 14.72252508359647
IRIDIUM 167             
1 43931U 19002K   25263.91827636  .00000106  00000+0  30885-4 0  9996
2 43931  86.3923 106.1833 0002494  81.3410 278.8068 14.34217415350369
IRIDIUM 181             
1 56726U 23068S   25263.83109760  .00000437  00000+0  12396-3 0  9994
2 56726  86.4580 169.3317 0002137  68.8416 291.3013 14.43311108123589
IRIDIUM 177             
1 56727U 23068T   25263.93017998  .00001158  00000+0  14890-3 0  9999
2 56727  86.1921  96.6736 0002393  81.8540 278.2952 14.80233549126537
IRIDIUM 174             
1 56728U 23068U   25263.93274563  .00000379  00000+0  56250-4 0  9994
2 56728  86.6055 106.2874 0002270  97.6281 262.5195 14.72252838126407
IRIDIUM 178             
1 56729U 23068V   25263.91931112  .00001428  00000+0  18442-3 0  9999
2 56729  86.6564 137.9069 0002561  86.6239 273.5275 14.80245068126535
IRIDIUM 179             
1 56730U 23068W   25263.91393102  .00001423  00000+0  18379-3 0  9996
2 56730  86.6821 146.0720 0002861  80.8055 279.3490 14.80247638126531
